NAVSTAR 48 (USA 151)    
1 26407U 00040A   26188.47557698  .00000096  00000+0  00000+0 0  9992
2 26407  54.8494 214.3563 0120687 302.6485 230.0354  2.00557795190356
NAVSTAR 51 (USA 166)    
1 27663U 03005A   26188.06357402  .00000093  00000+0  00000+0 0  9994
2 27663  54.8800 214.1790 0148150  53.1469 318.2156  2.00559479171716
NAVSTAR 54 (USA 177)    
1 28190U 04009A   26188.33554531 -.00000022  00000+0  00000+0 0  9990
2 28190  54.8128 274.8727 0116918 173.9909 186.4511  2.00554010163352
NAVSTAR 56 (USA 180)    
1 28474U 04045A   26187.79546740 -.00000070  00000+0  00000+0 0  9990
2 28474  55.1238 324.1069 0170043 316.8633  78.6534  2.00556743158820
NAVSTAR 57 (USA 183)    
1 28874U 05038A   26188.30418039 -.00000017  00000+0  00000+0 0  9995
2 28874  54.8618 272.3651 0128121 296.3215  70.8869  2.00564259152247
INMARSAT 4-F2           
1 28899U 05044A   26187.46055828 -.00000249  00000+0  00000+0 0  9995
2 28899   5.1182  43.6509 0003082  53.4955 136.5803  1.00271325 75713
NAVSTAR 58 (USA 190)    
1 29486U 06042A   26188.19350481  .00000080  00000+0  00000+0 0  9993
2 29486  54.7126 150.5447 0106980  54.9356 131.1655  2.00568699144790
NAVSTAR 59 (USA 192)    
1 29601U 06052A   26188.36200401  .00000097  00000+0  00000+0 0  9996
2 29601  54.9330 213.2064 0084819  90.9745 270.0553  2.00559235143816
NAVSTAR 60 (USA 196)    
1 32260U 07047A   26188.16886757 -.00000030  00000+0  00000+0 0  9996
2 32260  54.1095  79.2421 0167519  87.8093 274.1544  2.00554279137213
COSMOS 2433 [GLONASS-M] 
1 32275U 07052A   26187.62445233 -.00000046  00000+0  00000+0 0  9995
2 32275  65.5650 315.2799 0003185 201.3457 158.6520  2.13104455145476
COSMOS 2432 [GLONASS-M] 
1 32276U 07052B   26188.59810170 -.00000049  00000+0  00000+0 0  9992
2 32276  65.5804 315.3755 0007481 325.2447   5.5151  2.13103453145511
NAVSTAR 61 (USA 199)    
1 32384U 07062A   26188.48360975 -.00000019  00000+0  00000+0 0  9991
2 32384  55.0155 273.3361 0035995 166.9745 188.0514  2.00561201135910
COSMOS 2434 [GLONASS-M] 
1 32393U 07065A   26188.36273306  .00000121  00000+0  00000+0 0  9995
2 32393  64.3197 191.2352 0001269 327.0177 129.1051  2.13101429144203
COSMOS 2436 [GLONASS-M] 
1 32395U 07065C   26187.74076837  .00000116  00000+0  00000+0 0  9992
2 32395  64.3281 191.3285 0017275 353.5093 117.6939  2.13100220144148
NAVSTAR 62 (USA 201)    
1 32711U 08012A   26188.57688300  .00000076  00000+0  00000+0 0  9998
2 32711  54.4995 149.1103 0211605 248.0744 109.6461  2.00572919134162
NAVSTAR 64 (USA 206)    
1 35752U 09043A   26188.55759885 -.00000055  00000+0  00000+0 0  9994
2 35752  56.2230  26.6524 0053789  84.0632 270.2495  2.00553170123763
COSMOS 2456 [GLONASS-M] 
1 36111U 09070A   26188.26918932 -.00000021  00000+0  00000+0 0  9995
2 36111  65.0226  70.2874 0003874 336.2686 206.3509  2.13103871128854
COSMOS 2457 [GLONASS-M] 
1 36112U 09070B   26188.62621909 -.00000023  00000+0  00000+0 0  9993
2 36112  65.0084  70.1188 0003704 123.5915 100.1518  2.13101330128868
COSMOS 2460 [GLONASS-M] 
1 36402U 10007C   26188.35860000 -.00000048  00000+0  00000+0 0  9991
2 36402  65.4077 313.7844 0001890 129.7435 250.6526  2.13101922127169
NAVSTAR 65 (USA 213)    
1 36585U 10022A   26186.90073374  .00000088  00000+0  00000+0 0  9992
2 36585  54.2693 207.8082 0126546  66.1443 291.3331  2.00563324117964
BEIDOU-2 IGSO-1         
1 36828U 10036A   26188.62304567 -.00000058  00000+0  00000+0 0  9997
2 36828  54.3062 162.7756 0059224 225.1869 229.2421  1.00266308 58302
BEIDOU-2 G4             
1 37210U 10057A   26188.61485138 -.00000100  00000+0  00000+0 0  9997
2 37210   3.6943  68.8236 0005164 185.9337  52.1316  1.00270800 57496
BEIDOU-2 IGSO-2         
1 37256U 10068A   26188.66540134 -.00000203  00000+0  00000+0 0  9996
2 37256  47.5102 271.5779 0056836 213.5507 148.3457  1.00276167 57007
BEIDOU-2 IGSO-3         
1 37384U 11013A   26187.52460699 -.00000170  00000+0  00000+0 0  9993
2 37384  62.4337  39.9702 0035245 183.2519 357.0849  1.00262965 55850
GSAT-8                  
1 37605U 11022A   26188.58373150  .00000099  00000+0  00000+0 0  9990
2 37605   2.1805  81.5798 0002453 166.7948 302.3945  1.00270872 53429
BEIDOU-2 IGSO-4         
1 37763U 11038A   26187.84005391  .00000048  00000+0  00000+0 0  9993
2 37763  54.6039 165.4986 0160070 231.4311 284.4062  1.00281732 54844
GSAT0101 (GALILEO-PFM)  
1 37846U 11060A   26184.27277323 -.00000076  00000+0  00000+0 0  9992
2 37846  56.9888 341.3256 0002657  57.8189 302.2010  1.70475789 91394
GSAT0102 (GALILEO-FM2)  
1 37847U 11060B   26184.78699916 -.00000075  00000+0  00000+0 0  9994
2 37847  56.9894 341.3121 0002522  12.9231 348.3249  1.70476028 91419
COSMOS 2476 [GLONASS-M] 
1 37867U 11064A   26188.33096850 -.00000020  00000+0  00000+0 0  9993
2 37867  65.2807  72.1917 0022371 236.6236 261.7151  2.13103948114191
COSMOS 2477 [GLONASS-M] 
1 37868U 11064B   26188.15487328 -.00000020  00000+0  00000+0 0  9998
2 37868  65.2873  72.2772 0019396 237.9015 305.6247  2.13103195114184
COSMOS 2475 [GLONASS-M] 
1 37869U 11064C   26188.14343966 -.00000019  00000+0  00000+0 0  9995
2 37869  65.2942  72.2994 0025046 251.6498 238.1399  2.13101994114199
